{"type": "FeatureCollection", "features": [ {"type": "Feature", "properties": {"norad_id": 39634, "name": "SENTINEL-1A", "group": "resource", "lat": 24.100780216137963, "lon": -177.22999542727942, "alt_km": 694.8864231380021, "timestamp": "2025-12-19T22:41:52.036110+00:00", "meta": {"OBJECT_NAME": "SENTINEL-1A", "OBJECT_ID": "2014-016A", "EPOCH": "2025-12-19T18:41:45.766752", "MEAN_MOTION": 14.5920122, "ECCENTRICITY": 0.0001268, "INCLINATION": 98.1795, "RA_OF_ASC_NODE": 358.9167, "ARG_OF_PERICENTER": 84.202, "MEAN_ANOMALY": 275.9324, "EPHEMERIS_TYPE": 0, "CLASSIFICATION_TYPE": "U", "NORAD_CAT_ID": 39634, "ELEMENT_SET_NO": 999, "REV_AT_EPOCH": 62385, "BSTAR": -4.6098e-06, "MEAN_MOTION_DOT": -6.7e-07, "MEAN_MOTION_DDOT": 0}, "tle": {"line1": "1 39634U 14016A   25353.77900193 -.00000067  00000+0 -46098-5 0  9997", "line2": "2 39634  98.1795 358.9167 0001268  84.2020 275.9324 14.59201220623850"}}, "geometry": {"type": "Point", "coordinates": [-177.22999542727942, 24.100780216137963]}}, {"type": "Feature", "properties": {"norad_id": 39731, "name": "KAZEOSAT 1", "group": "resource", "lat": 45.50012472751453, "lon": 57.10339351855319, "alt_km": 747.183546324025, "timestamp": "2025-12-19T22:41:52.036120+00:00", "meta": {"OBJECT_NAME": "KAZEOSAT 1", "OBJECT_ID": "2014-024A", "EPOCH": "2025-12-19T17:29:20.003136", "MEAN_MOTION": 14.42067184, "ECCENTRICITY": 0.0001163, "INCLINATION": 98.3432, "RA_OF_ASC_NODE": 65.4796, "ARG_OF_PERICENTER": 95.859, "MEAN_ANOMALY": 264.2732, "EPHEMERIS_TYPE": 0, "CLASSIFICATION_TYPE": "U", "NORAD_CAT_ID": 39731, "ELEMENT_SET_NO": 999, "REV_AT_EPOCH": 61269, "BSTAR": 0.00013919, "MEAN_MOTION_DOT": 4.14e-06, "MEAN_MOTION_DDOT": 0}, "tle": {"line1": "1 39731U 14024A   25353.72870374  .00000414  00000+0  13919-3 0  9994", "line2": "2 39731  98.3432  65.4796 0001163  95.8590 264.2732 14.42067184612695"}}, "geometry": {"type": "Point", "coordinates": [57.10339351855319, 45.50012472751453]}}, {"type": "Feature", "properties": {"norad_id": 39766, "name": "ALOS-2", "group": "resource", "lat": 0.8198706142648241, "lon": -91.19600345460805, "alt_km": 633.7527545776538, "timestamp": "2025-12-19T22:41:52.036130+00:00", "meta": {"OBJECT_NAME": "ALOS-2", "OBJECT_ID": "2014-029A", "EPOCH": "2025-12-19T17:01:17.758848", "MEAN_MOTION": 14.79471141, "ECCENTRICITY": 0.0001429, "INCLINATION": 97.923, "RA_OF_ASC_NODE": 88.4567, "ARG_OF_PERICENTER": 98.3883, "MEAN_ANOMALY": 261.749, "EPHEMERIS_TYPE": 0, "CLASSIFICATION_TYPE": "U", "NORAD_CAT_ID": 39766, "ELEMENT_SET_NO": 999, "REV_AT_EPOCH": 62504, "BSTAR": 0.00037082, "MEAN_MOTION_DOT": 2.719e-05, "MEAN_MOTION_DDOT": 0}, "tle": {"line1": "1 39766U 14029A   25353.70923332  .00002719  00000+0  37082-3 0  9995", "line2": "2 39766  97.9230  88.4567 0001429  98.3883 261.7490 14.79471141625041"}}, "geometry": {"type": "Point", "coordinates": [-91.19600345460805, 0.8198706142648241]}}, {"type": "Feature", "properties": {"norad_id": 40010, "name": "KAZEOSAT 2", "group": "resource", "lat": -56.15368747797987, "lon": 6.481031520125356, "alt_km": 616.8473550338049, "timestamp": "2025-12-19T22:41:52.036140+00:00", "meta": {"OBJECT_NAME": "KAZEOSAT 2", "OBJECT_ID": "2014-033A", "EPOCH": "2025-12-19T18:24:03.462336", "MEAN_MOTION": 14.85177553, "ECCENTRICITY": 0.0008203, "INCLINATION": 97.5499, "RA_OF_ASC_NODE": 197.718, "ARG_OF_PERICENTER": 182.1067, "MEAN_ANOMALY": 178.0115, "EPHEMERIS_TYPE": 0, "CLASSIFICATION_TYPE": "U", "NORAD_CAT_ID": 40010, "ELEMENT_SET_NO": 999, "REV_AT_EPOCH": 62232, "BSTAR": 1.6862e-05, "MEAN_MOTION_DOT": 9.4e-07, "MEAN_MOTION_DDOT": 0}, "tle": {"line1": "1 40010U 14033A   25353.76670674  .00000094  00000+0  16862-4 0  9996", "line2": "2 40010  97.5499 197.7180 0008203 182.1067 178.0115 14.85177553622325"}}, "geometry": {"type": "Point", "coordinates": [6.481031520125356, -56.15368747797987]}}, {"type": "Feature", "properties": {"norad_id": 40011, "name": "HODOYOSHI-4", "group": "resource", "lat": 24.17989934222997, "lon": 179.063935841989, "alt_km": 619.7881277344095, "timestamp": "2025-12-19T22:41:52.036150+00:00", "meta": {"OBJECT_NAME": "HODOYOSHI-4", "OBJECT_ID": "2014-033B", "EPOCH": "2025-12-19T19:21:32.509728", "MEAN_MOTION": 14.87504998, "ECCENTRICITY": 0.0023697, "INCLINATION": 97.5405, "RA_OF_ASC_NODE": 182.3414, "ARG_OF_PERICENTER": 176.9596, "MEAN_ANOMALY": 183.1769, "EPHEMERIS_TYPE": 0, "CLASSIFICATION_TYPE": "U", "NORAD_CAT_ID": 40011, "ELEMENT_SET_NO": 999, "REV_AT_EPOCH": 62213, "BSTAR": 0.00016723, "MEAN_MOTION_DOT": 1.472e-05, "MEAN_MOTION_DDOT": 0}, "tle": {"line1": "1 40011U 14033B   25353.80662627  .00001472  00000+0  16723-3 0  9997", "line2": "2 40011  97.5405 182.3414 0023697 176.9596 183.1769 14.87504998622135"}}, "geometry": {"type": "Point", "coordinates": [179.063935841989, 24.17989934222997]}}, {"type": "Feature", "properties": {"norad_id": 40013, "name": "DEIMOS-2", "group": "resource", "lat": -35.54384641068051, "lon": -125.01328006269485, "alt_km": 595.6888855209891, "timestamp": "2025-12-19T22:41:52.036160+00:00", "meta": {"OBJECT_NAME": "DEIMOS-2", "OBJECT_ID": "2014-033D", "EPOCH": "2025-12-19T19:38:28.823424", "MEAN_MOTION": 14.93004398, "ECCENTRICITY": 0.000144, "INCLINATION": 97.6068, "RA_OF_ASC_NODE": 229.3847, "ARG_OF_PERICENTER": 106.1152, "MEAN_ANOMALY": 254.0226, "EPHEMERIS_TYPE": 0, "CLASSIFICATION_TYPE": "U", "NORAD_CAT_ID": 40013, "ELEMENT_SET_NO": 999, "REV_AT_EPOCH": 61095, "BSTAR": 0.00024061, "MEAN_MOTION_DOT": 2.447e-05, "MEAN_MOTION_DDOT": 0}, "tle": {"line1": "1 40013U 14033D   25353.81838916  .00002447  00000+0  24061-3 0  9993", "line2": "2 40013  97.6068 229.3847 0001440 106.1152 254.0226 14.93004398610959"}}, "geometry": {"type": "Point", "coordinates": [-125.01328006269485, -35.54384641068051]}}, {"type": "Feature", "properties": {"norad_id": 40015, "name": "HODOYOSHI-3", "group": "resource", "lat": -60.03886196502094, "lon": -33.962303870328824, "alt_km": 599.8007634370997, "timestamp": "2025-12-19T22:41:52.036170+00:00", "meta": {"OBJECT_NAME": "HODOYOSHI-3", "OBJECT_ID": "2014-033F", "EPOCH": "2025-12-19T16:45:48.556224", "MEAN_MOTION": 14.84828548, "ECCENTRICITY": 0.003219, "INCLINATION": 97.6204, "RA_OF_ASC_NODE": 159.231, "ARG_OF_PERICENTER": 224.2275, "MEAN_ANOMALY": 135.6367, "EPHEMERIS_TYPE": 0, "CLASSIFICATION_TYPE": "U", "NORAD_CAT_ID": 40015, "ELEMENT_SET_NO": 999, "REV_AT_EPOCH": 62098, "BSTAR": 0.00014158, "MEAN_MOTION_DOT": 1.161e-05, "MEAN_MOTION_DDOT": 0}, "tle": {"line1": "1 40015U 14033F   25353.69847866  .00001161  00000+0  14158-3 0  9993", "line2": "2 40015  97.6204 159.2310 0032190 224.2275 135.6367 14.84828548620988"}}, "geometry": {"type": "Point", "coordinates": [-33.962303870328824, -60.03886196502094]}}, {"type": "Feature", "properties": {"norad_id": 40053, "name": "SPOT 7", "group": "resource", "lat": 58.94233562364247, "lon": 42.193649768960945, "alt_km": 684.0756023376916, "timestamp": "2025-12-19T22:41:52.036180+00:00", "meta": {"OBJECT_NAME": "SPOT 7", "OBJECT_ID": "2014-034A", "EPOCH": "2025-12-19T17:29:33.345888", "MEAN_MOTION": 14.60742847, "ECCENTRICITY": 0.0001546, "INCLINATION": 98.0903, "RA_OF_ASC_NODE": 55.6437, "ARG_OF_PERICENTER": 84.6997, "MEAN_ANOMALY": 275.438, "EPHEMERIS_TYPE": 0, "CLASSIFICATION_TYPE": "U", "NORAD_CAT_ID": 40053, "ELEMENT_SET_NO": 999, "REV_AT_EPOCH": 61093, "BSTAR": 0.00012976, "MEAN_MOTION_DOT": 5.87e-06, "MEAN_MOTION_DDOT": 0}, "tle": {"line1": "1 40053U 14034A   25353.72885817  .00000587  00000+0  12976-3 0  9995", "line2": "2 40053  98.0903  55.6437 0001546  84.6997 275.4380 14.60742847610933"}}, "geometry": {"type": "Point", "coordinates": [42.193649768960945, 58.94233562364247]}}, {"type": "Feature", "properties": {"norad_id": 40072, "name": "SKYSAT-B", "group": "resource", "lat": -35.41873821055269, "lon": -55.96312887534415, "alt_km": 616.9480420818081, "timestamp": "2025-12-19T22:41:52.036190+00:00", "meta": {"OBJECT_NAME": "SKYSAT-B", "OBJECT_ID": "2014-037D", "EPOCH": "2025-12-19T09:56:31.818624", "MEAN_MOTION": 14.87349396, "ECCENTRICITY": 0.0006559, "INCLINATION": 98.362, "RA_OF_ASC_NODE": 297.473, "ARG_OF_PERICENTER": 131.3672, "MEAN_ANOMALY": 228.8107, "EPHEMERIS_TYPE": 0, "CLASSIFICATION_TYPE": "U", "NORAD_CAT_ID": 40072, "ELEMENT_SET_NO": 999, "REV_AT_EPOCH": 61923, "BSTAR": 0.0001415, "MEAN_MOTION_DOT": 1.217e-05, "MEAN_MOTION_DDOT": 0}, "tle": {"line1": "1 40072U 14037D   25353.41425716  .00001217  00000+0  14150-3 0  9990", "line2": "2 40072  98.3620 297.4730 0006559 131.3672 228.8107 14.87349396619236"}}, "geometry": {"type": "Point", "coordinates": [-55.96312887534415, -35.41873821055269]}}, {"type": "Feature", "properties": {"norad_id": 40115, "name": "WORLDVIEW-3 (WV-3)", "group": "resource", "lat": 18.48681749663996, "lon": -111.21018649286201, "alt_km": 613.8595987415856, "timestamp": "2025-12-19T22:41:52.036201+00:00", "meta": {"OBJECT_NAME": "WORLDVIEW-3 (WV-3)", "OBJECT_ID": "2014-048A", "EPOCH": "2025-12-19T17:07:17.406624", "MEAN_MOTION": 14.84662552, "ECCENTRICITY": 0.0001764, "INCLINATION": 97.8773, "RA_OF_ASC_NODE": 65.9071, "ARG_OF_PERICENTER": 137.697, "MEAN_ANOMALY": 222.4381, "EPHEMERIS_TYPE": 0, "CLASSIFICATION_TYPE": "U", "NORAD_CAT_ID": 40115, "ELEMENT_SET_NO": 999, "REV_AT_EPOCH": 61527, "BSTAR": 9.7873e-05, "MEAN_MOTION_DOT": 7.74e-06, "MEAN_MOTION_DDOT": 0}, "tle": {"line1": "1 40115U 14048A   25353.71339591  .00000774  00000+0  97873-4 0  9999", "line2": "2 40115  97.8773  65.9071 0001764 137.6970 222.4381 14.84662552615279"}}, "geometry": {"type": "Point", "coordinates": [-111.21018649286201, 18.48681749663996]}}]}